[{"OBJECT_NAME":"WNISAT-1","OBJECT_ID":"2013-066H","EPOCH":"2026-03-09T23:22:50.142144","MEAN_MOTION":14.57873953,"ECCENTRICITY":0.01635812,"INCLINATION":97.7044,"RA_OF_ASC_NODE":225.2618,"ARG_OF_PERICENTER":183.9709,"MEAN_ANOMALY":176.0205,"EPHEMERIS_TYPE":0,"CLASSIFICATION_TYPE":"U","NORAD_CAT_ID":39423,"ELEMENT_SET_NO":999,"REV_AT_EPOCH":65227,"BSTAR":0.00040775548,"MEAN_MOTION_DOT":2.198e-5,"MEAN_MOTION_DDOT":0},{"OBJECT_NAME":"MUBLCOM","OBJECT_ID":"1999-026B","EPOCH":"2026-03-09T16:39:58.529088","MEAN_MOTION":14.56967888,"ECCENTRICITY":0.00043613,"INCLINATION":97.6988,"RA_OF_ASC_NODE":296.1295,"ARG_OF_PERICENTER":169.9266,"MEAN_ANOMALY":190.2022,"EPHEMERIS_TYPE":0,"CLASSIFICATION_TYPE":"U","NORAD_CAT_ID":25736,"ELEMENT_SET_NO":999,"REV_AT_EPOCH":41535,"BSTAR":0.00037161426,"MEAN_MOTION_DOT":1.629e-5,"MEAN_MOTION_DDOT":0}]
